XRISM                   
1 57800U 23137A   24276.81846106  .00020874  00000+0  14988-2 0  9993
2 57800  31.0039  46.6138 0009077 193.1275 166.9126 15.03155747 58807
